OBJECT_NAME,OBJECT_ID,EPOCH,MEAN_MOTION,ECCENTRICITY,INCLINATION,RA_OF_ASC_NODE,ARG_OF_PERICENTER,MEAN_ANOMALY,EPHEMERIS_TYPE,CLASSIFICATION_TYPE,NORAD_CAT_ID,ELEMENT_SET_NO,REV_AT_EPOCH,BSTAR,MEAN_MOTION_DOT,MEAN_MOTION_DDOT
STARLINK-34232,2025-161E,2026-07-14T21:32:41.894304,15.30199546,.00014068,53.1605,63.5018,73.5806,286.5350,0,U,65019,999,5491,.36651904E-3,.10511E-3,0
STARLINK-34772,2025-161F,2026-07-14T21:59:17.766240,15.34375160,.00010018,53.1583,61.4920,97.8140,262.2977,0,U,65020,999,5494,.55288811E-3,.18335E-3,0
STARLINK-34778,2025-161G,2026-07-14T21:46:22.343520,15.30198250,.00014771,53.1606,63.5659,106.6068,253.5096,0,U,65021,999,5479,.2194318E-3,.6145E-4,0
STARLINK-34789,2025-161H,2026-07-14T21:40:16.889664,15.30253683,.00010553,53.1606,63.5330,86.6856,273.4265,0,U,65022,999,5479,.73526083E-3,.21516E-3,0
STARLINK-34858,2025-161J,2026-07-14T22:00:03.000096,15.33547866,.00009787,53.1599,63.3308,71.0863,76.0008,0,U,65023,999,576,-.28171883E-3,-.9625E-4,0
STARLINK-34773,2025-161K,2026-07-14T21:56:16.307232,15.34397410,.00012457,53.1587,61.4757,85.5330,274.5815,0,U,65024,999,5482,.20418884E-3,.6528E-4,0
STARLINK-34727,2025-161L,2026-07-14T21:35:03.895296,15.34400643,.00011859,53.1594,61.3850,76.6147,283.4988,0,U,65025,999,5485,.26919889E-3,.873E-4,0
STARLINK-34804,2025-161M,2026-07-14T22:53:04.091712,15.30210468,.00013466,53.1597,63.1390,94.3514,265.7641,0,U,65026,999,5482,.3420084E-3,.9787E-4,0
STARLINK-34655,2025-161N,2026-07-14T22:00:03.000096,15.34389703,.00019679,53.1605,63.4570,77.7592,3.4695,0,U,65027,999,582,-.36394225E-3,-.12649E-3,0
STARLINK-34807,2025-161P,2026-07-14T22:11:26.633184,15.34419547,.0000811,53.1578,61.5392,51.0200,309.0874,0,U,65028,999,5483,.71543956E-3,.23888E-3,0
STARLINK-34731,2025-161Q,2026-07-14T21:41:08.880000,15.34415874,.00010688,53.1583,61.4132,94.4142,265.6983,0,U,65029,999,5483,.95602679E-3,.32079E-3,0
STARLINK-34614,2025-161R,2026-07-14T21:50:55.656096,15.30206039,.00011129,53.1587,63.5772,91.7237,268.3891,0,U,65030,999,5480,.33175939E-3,.9481E-4,0
STARLINK-34677,2025-161S,2026-07-14T21:44:50.994528,15.30201557,.0001198,53.1596,63.5522,89.0242,271.0896,0,U,65031,999,5370,.27258129E-3,.7723E-4,0
STARLINK-34656,2025-161T,2026-07-14T22:00:03.000096,15.33545110,.00009674,53.1602,63.4289,73.6709,22.7214,0,U,65032,999,582,-.26596347E-3,-.9108E-4,0
STARLINK-34610,2025-161V,2026-07-14T21:22:02.730432,15.30234610,.00012568,53.1602,63.4534,84.6089,275.5055,0,U,65034,999,5370,.90384041E-3,.26534E-3,0
STARLINK-34286,2025-161W,2026-07-14T21:50:12.628896,15.34402780,.00011298,53.1587,61.4496,85.9681,274.1450,0,U,65035,999,5373,.2622915E-3,.8497E-4,0
STARLINK-34770,2025-161X,2026-07-14T21:37:15.011616,15.30208109,.00013788,53.1607,63.5148,94.4440,265.6718,0,U,65036,999,5370,.46344604E-3,.13395E-3,0
STARLINK-34776,2025-161Y,2026-07-14T21:31:10.247232,15.30202946,.00011216,53.1602,63.4914,93.8642,266.2487,0,U,65037,999,5370,.23676282E-3,.666E-4,0
STARLINK-34827,2025-161Z,2026-07-14T20:28:31.782432,15.34382400,.00012436,53.1586,61.7967,83.3175,276.7969,0,U,65038,999,5372,.39172379E-3,.12874E-3,0
STARLINK-34721,2025-161AA,2026-07-14T22:01:24.126240,15.30203160,.00011198,53.1581,62.9082,87.6656,272.4473,0,U,65039,999,5371,.24766164E-3,.6984E-4,0
STARLINK-34819,2025-161AB,2026-07-14T22:00:03.000096,15.34388904,.00013018,53.1605,63.3852,85.4804,30.6185,0,U,65040,999,587,-.33458693E-3,-.11659E-3,0
STARLINK-34820,2025-161AC,2026-07-14T21:38:05.659296,15.34401928,.00012798,53.1600,61.3992,85.8565,274.2584,0,U,65041,999,5373,.27465277E-3,.8915E-4,0
STARLINK-34824,2025-161AD,2026-07-14T22:05:21.588000,15.34403749,.00010671,53.1593,61.5144,113.5096,246.6019,0,U,65042,999,5373,.45697626E-3,.15096E-3,0
HULIANWANG DIGUI-40,2025-162A,2026-07-14T23:34:49.740096,13.29327267,.00002971,49.9978,166.2420,313.1130,46.9717,0,U,65043,999,4704,.268332E-5,-.123E-5,0
HULIANWANG DIGUI-41,2025-162B,2026-07-14T21:34:33.926592,13.29326891,.00002677,49.9988,166.4956,321.3218,38.7635,0,U,65044,999,4704,.23674209E-4,-.113E-5,0
HULIANWANG DIGUI-42,2025-162C,2026-07-14T23:10:42.055392,13.29327548,.00002845,49.9954,166.0860,313.5359,46.5489,0,U,65045,999,4705,.14795526E-4,-.117E-5,0
HULIANWANG DIGUI-43,2025-162D,2026-07-14T22:58:43.480416,13.29326159,.00003332,49.9970,166.0915,310.6085,49.4758,0,U,65046,999,4705,.15273493E-4,-.117E-5,0
HULIANWANG DIGUI-44,2025-162E,2026-07-14T22:46:32.073312,13.29318630,.00014265,49.9998,166.1217,328.8345,31.2442,0,U,65047,999,4706,.5349425E-5,-.122E-5,0
HULIANWANG DIGUI-45,2025-162F,2026-07-14T22:34:41.492064,13.29327204,.00002646,50.0027,166.1623,316.1878,43.8973,0,U,65048,999,4705,-.277469E-5,-.125E-5,0
HULIANWANG DIGUI-46,2025-162G,2026-07-14T22:22:41.719584,13.29326987,.00002439,50.0046,166.1691,312.4411,47.6441,0,U,65049,999,4705,-.1350865E-5,-.125E-5,0
