STARLINK-34232          
1 65019U 25161E   26195.89770711  .00010511  00000+0  36652-3 0  9991
2 65019  53.1605  63.5018 0001406  73.5806 286.5350 15.30199546 54917
STARLINK-34772          
1 65020U 25161F   26195.91617785  .00018335  00000+0  55289-3 0  9996
2 65020  53.1583  61.4920 0001001  97.8140 262.2977 15.34375160 54945
STARLINK-34778          
1 65021U 25161G   26195.90720305  .00006145  00000+0  21943-3 0  9995
2 65021  53.1606  63.5659 0001477 106.6068 253.5096 15.30198250 54796
STARLINK-34789          
1 65022U 25161H   26195.90297326  .00021516  00000+0  73526-3 0  9991
2 65022  53.1606  63.5330 0001055  86.6856 273.4265 15.30253683 54798
STARLINK-34858          
1 65023U 25161J   26195.91670139 -.00009625  00000+0 -28172-3 0  9996
2 65023  53.1599  63.3308 0000978  71.0863  76.0008 15.33547866  5769
STARLINK-34773          
1 65024U 25161K   26195.91407763  .00006528  00000+0  20419-3 0  9991
2 65024  53.1587  61.4757 0001245  85.5330 274.5815 15.34397410 54822
STARLINK-34727          
1 65025U 25161L   26195.89935064  .00008730  00000+0  26920-3 0  9999
2 65025  53.1594  61.3850 0001185  76.6147 283.4988 15.34400643 54850
STARLINK-34804          
1 65026U 25161M   26195.95351958  .00009787  00000+0  34201-3 0  9995
2 65026  53.1597  63.1390 0001346  94.3514 265.7641 15.30210468 54823
STARLINK-34655          
1 65027U 25161N   26195.91670139 -.00012649  00000+0 -36394-3 0  9995
2 65027  53.1605  63.4570 0001967  77.7592   3.4695 15.34389703  5822
STARLINK-34807          
1 65028U 25161P   26195.92461381  .00023888  00000+0  71544-3 0  9995
2 65028  53.1578  61.5392 0000811  51.0200 309.0874 15.34419547 54830
STARLINK-34731          
1 65029U 25161Q   26195.90357500  .00032079  00000+0  95603-3 0  9995
2 65029  53.1583  61.4132 0001068  94.4142 265.6983 15.34415874 54836
STARLINK-34614          
1 65030U 25161R   26195.91036639  .00009481  00000+0  33176-3 0  9993
2 65030  53.1587  63.5772 0001112  91.7237 268.3891 15.30206039 54802
STARLINK-34677          
1 65031U 25161S   26195.90614577  .00007723  00000+0  27258-3 0  9997
2 65031  53.1596  63.5522 0001198  89.0242 271.0896 15.30201557 53700
STARLINK-34656          
1 65032U 25161T   26195.91670139 -.00009108  00000+0 -26596-3 0  9990
2 65032  53.1602  63.4289 0000967  73.6709  22.7214 15.33545110  5822
STARLINK-34610          
1 65034U 25161V   26195.89030938  .00026534  00000+0  90384-3 0  9992
2 65034  53.1602  63.4534 0001256  84.6089 275.5055 15.30234610 53700
STARLINK-34286          
1 65035U 25161W   26195.90986839  .00008497  00000+0  26229-3 0  9990
2 65035  53.1587  61.4496 0001129  85.9681 274.1450 15.34402780 53735
STARLINK-34770          
1 65036U 25161X   26195.90086819  .00013395  00000+0  46345-3 0  9994
2 65036  53.1607  63.5148 0001378  94.4440 265.6718 15.30208109 53704
STARLINK-34776          
1 65037U 25161Y   26195.89664638  .00006660  00000+0  23676-3 0  9993
2 65037  53.1602  63.4914 0001121  93.8642 266.2487 15.30202946 53706
STARLINK-34827          
1 65038U 25161Z   26195.85314563  .00012874  00000+0  39172-3 0  9991
2 65038  53.1586  61.7967 0001243  83.3175 276.7969 15.34382400 53728
STARLINK-34721          
1 65039U 25161AA  26195.91764035  .00006984  00000+0  24766-3 0  9990
2 65039  53.1581  62.9082 0001119  87.6656 272.4473 15.30203160 53711
STARLINK-34819          
1 65040U 25161AB  26195.91670139 -.00011659  00000+0 -33459-3 0  9999
2 65040  53.1605  63.3852 0001301  85.4804  30.6185 15.34388904  5876
STARLINK-34820          
1 65041U 25161AC  26195.90145439  .00008915  00000+0  27465-3 0  9998
2 65041  53.1600  61.3992 0001279  85.8565 274.2584 15.34401928 53736
STARLINK-34824          
1 65042U 25161AD  26195.92038875  .00015096  00000+0  45698-3 0  9992
2 65042  53.1593  61.5144 0001067 113.5096 246.6019 15.34403749 53731
HULIANWANG DIGUI-40     
1 65043U 25162A   26195.98252014 -.00000123  00000+0  26833-5 0  9991
2 65043  49.9978 166.2420 0000297 313.1130  46.9717 13.29327267 47048
HULIANWANG DIGUI-41     
1 65044U 25162B   26195.89900378 -.00000113  00000+0  23674-4 0  9993
2 65044  49.9988 166.4956 0000267 321.3218  38.7635 13.29326891 47041
HULIANWANG DIGUI-42     
1 65045U 25162C   26195.96576453 -.00000117  00000+0  14796-4 0  9994
2 65045  49.9954 166.0860 0000284 313.5359  46.5489 13.29327548 47058
HULIANWANG DIGUI-43     
1 65046U 25162D   26195.95744769 -.00000117  00000+0  15273-4 0  9992
2 65046  49.9970 166.0915 0000333 310.6085  49.4758 13.29326159 47055
HULIANWANG DIGUI-44     
1 65047U 25162E   26195.94898233 -.00000122  00000+0  53494-5 0  9992
2 65047  49.9998 166.1217 0001426 328.8345  31.2442 13.29318630 47061
HULIANWANG DIGUI-45     
1 65048U 25162F   26195.94075801 -.00000125  00000+0 -27747-5 0  9997
2 65048  50.0027 166.1623 0000264 316.1878  43.8973 13.29327204 47053
HULIANWANG DIGUI-46     
1 65049U 25162G   26195.93242731 -.00000125  00000+0 -13509-5 0  9996
2 65049  50.0046 166.1691 0000243 312.4411  47.6441 13.29326987 47058
